PROMETHEUS 2-3          
1 41855U 16067H   25197.54577806  .00039818  00000+0  67722-3 0  9994
2 41855  98.0653  54.4352 0006526 119.5423 240.6479 15.51307994476130
CORVUS BC2              
1 42846U 17042X   25197.45852458  .00001964  00000+0  14943-3 0  9996
2 42846  97.3773   8.2826 0014353 169.2278 190.9258 15.03133295436570
CORVUS BC1              
1 42847U 17042Y   25197.43697234  .00002722  00000+0  20422-3 0  9996
2 42847  97.3776   8.8227 0013082 151.6312 208.5629 15.03368770436595
MIRATA                  
1 43015U 17073C   25197.51665822  .00066104  00000+0  91795-3 0  9990
2 43015  97.5329  94.1068 0068359 310.8644  48.6697 15.54021023416537
MAKERSAT 0              
1 43016U 17073D   25197.63368181  .00013334  00000+0  52339-3 0  9990
2 43016  97.5136  75.4678 0144574  12.5968 347.8815 15.16604429415352
SIRION PATHFINDER-2     
1 43759U 18099B   25197.62365498  .00004070  00000+0  25283-3 0  9995
2 43759  97.4749 249.6630 0010069  27.5554 332.6207 15.10184732361908
CORVUS BC4              
1 43767U 18099K   25197.62665897  .00003211  00000+0  20885-3 0  9999
2 43767  97.4561 245.3100 0010544  80.0800 280.1619 15.08632258361744
SPACEBEE-7              
1 43816U 18099BL  25197.44214434  .00021333  00000+0  56945-3 0  9992
2 43816  97.4930 268.4051 0004540 353.5463   6.5722 15.38131162362468
SHIELDS 1               
1 43850U 18104B   25197.46508360  .00024282  00000+0  26610-3 0  9995
2 43850  85.0140  10.5299 0005951  21.0130 339.1378 15.63085728367211
DUCHIFAT-3              
1 44854U 19089C   25197.13264858  .00039321  00000+0  69849-3 0  9999
2 44854  36.9413 122.3086 0007046 263.3575  96.6381 15.49217052308687
M2 PATHFINDER           
1 45727U 20037E   25197.43914992  .00001745  00000+0  13648-3 0  9993
2 45727  97.8177  20.3650 0012068 195.6572 164.4280 15.02364782275045
NETSAT-4                
1 46504U 20068U   25197.47575407  .00009232  00000+0  30950-3 0  9993
2 46504  97.8469 177.4110 0009023  78.5628 281.6624 15.31119653264191
NETSAT-3                
1 46505U 20068V   25197.50440937  .00009348  00000+0  32810-3 0  9992
2 46505  97.8474 176.2944 0008935  87.7870 272.4392 15.29622608264154
NETSAT-1                
1 46506U 20068W   25197.47782088  .00007356  00000+0  30052-3 0  9998
2 46506  97.8502 173.8202 0008510 100.2291 259.9905 15.24673781263987
NETSAT-2                
1 46507U 20068X   25197.47505393  .00010550  00000+0  35688-3 0  9991
2 46507  97.8470 176.8751 0007595 100.1572 260.0524 15.30795238264134
WILDTRACKCUBE-SIMBA     
1 47941U 21022K   25197.59111365  .00024853  00000+0  48937-3 0  9992
2 47941  97.4177 103.0035 0010104 163.0508 197.1081 15.47175227238914
LEDSAT                  
1 49069U 21073D   25197.50269777  .00069178  00000+0  69211-3 0  9990
2 49069  97.3861 280.7073 0007222 287.7065  72.3406 15.65332306217207
GREENCUBE (IO-117)      
1 53109U 22080E   25194.98640723 -.00000003  00000+0  00000+0 0  9992
2 53109  70.1400  55.8522 0008695   3.4345 356.6374  6.42583629 70338
SITRO-AIS 5 (KATYS)     
1 57176U 23091L   25197.61739942  .00006505  00000+0  30205-3 0  9994
2 57176  97.5558 254.6356 0013735 194.2970 165.7878 15.20282885113209
SITRO-AIS 6 (CHIRKIN)   
1 57192U 23091AC  25197.60713104  .00006234  00000+0  29044-3 0  9991
2 57192  97.5556 254.6292 0013666 194.1575 165.9278 15.20182797113204
SITRO-AIS 8 (ANOKHIN)   
1 57193U 23091AD  25197.61140967  .00007431  00000+0  33114-3 0  9997
2 57193  97.5553 255.2183 0013122 193.1162 166.9735 15.21652517113242
SITRO-AIS 7 (FARTUSHNIY)
1 57194U 23091AE  25197.56539917  .00007266  00000+0  33900-3 0  9998
2 57194  97.5555 254.5203 0013479 194.9351 165.1487 15.20076204113195
SITRO-AIS 10 (BURDAEV)  
1 57199U 23091AK  25197.57573453  .00009259  00000+0  37212-3 0  9991
2 57199  97.5566 257.7045 0009596 173.7626 186.3732 15.25117217113391
SITRO-AIS 9 (SHCHUKIN)  
1 57201U 23091AM  25197.59812902  .00009081  00000+0  36720-3 0  9998
2 57201  97.5562 257.6282 0009571 174.0169 186.1185 15.24920676113392
SITRO-AIS 12 (SMIRENNIY)
1 57204U 23091AQ  25197.57531106  .00009481  00000+0  38087-3 0  9995
2 57204  97.5571 257.9036 0009623 167.9669 192.1800 15.25124784113409
SITRO-AIS 11 (SHEFFER)  
1 57208U 23091AU  25197.58887266  .00009060  00000+0  36184-3 0  9990
2 57208  97.5569 258.0164 0009472 168.0898 192.0565 15.25335756113413
VERONIKA                
1 58261U 23174F   25197.47490797  .00226541  00000+0  10549-2 0  9990
2 58261  97.4066 286.1786 0007008 238.2780 121.7806 15.82719418 94496
ROBUSTA-1E (ENSO)       
1 58470U 23185J   25197.57628601  .00052677  00000+0  66454-3 0  9996
2 58470  97.3708 273.9762 0004830 294.5238  65.5515 15.59419548 90797
SITRO-AIS 25            
1 59066U 24039R   25197.61388892  .00003345  00000+0  28158-3 0  9994
2 59066  95.3780   5.2096 0156800  58.7579 302.8898 14.89435731 74704
SITRO-AIS 26            
1 59067U 24039S   25197.57625335  .00002781  00000+0  23536-3 0  9994
2 59067  95.3780   5.1385 0156984  59.1341 302.5216 14.89287166 74696
SITRO-AIS 27            
1 59068U 24039T   25197.56318722  .00003049  00000+0  25601-3 0  9996
2 59068  95.3782   5.2664 0156273  58.4726 303.1654 14.89615837 74705
SITRO-AIS 28            
1 59071U 24039U   25197.61640644  .00003366  00000+0  28218-3 0  9996
2 59071  95.3783   5.3313 0156110  58.2071 303.4249 14.89656352 74714
GRBBETA                 
1 60237U 24128C   25197.59864216  .00002766  00000+0  21440-3 0  9994
2 60237  61.9924 310.4588 0054460  65.5140 295.1617 15.02891276 55765
OOV-CUBE (TUBSAT-30)    
1 60240U 24128F   25197.58535074  .00001645  00000+0  14271-3 0  9993
2 60240  61.9962 313.8174 0054835  62.5972 298.0681 15.00422094 55719
ROBUSTA-3A (MEDITERRAN*)
1 60243U 24128J   25197.58614625  .00005130  00000+0  36262-3 0  9993
2 60243  61.9893 309.1890 0053351  59.4390 301.1951 15.05076576 55798
LASARSAT                
1 62391U 24247Q   25197.35830228  .00010882  00000+0  41583-3 0  9997
2 62391  44.9799 319.4902 0009584 265.5200  94.4587 15.26768916 31685
CROCUBE                 
1 62394U 24247T   25197.34739676  .00012108  00000+0  45801-3 0  9994
2 62394  44.9768 319.3805 0010235 266.8565  93.1147 15.27005264 31687
